FORMOSAT 7-3            
1 44343U 19036E   26068.82630502  .00006445  00000+0  37650-3 0  9997
2 44343  23.9981 141.9797 0001061 150.4425 209.6139 15.08933962368215
STARLINK-3736           
1 52113U 22029AB  26068.40924782  .00000376  00000+0  41697-4 0  9991
2 52113  53.2176  80.3803 0001372  91.0355 269.0795 15.08839368220740
